<?xml version="1.0" encoding="UTF-8"?>
<kml xmlns="http://www.opengis.net/kml/2.2">
  <Document>
    <name>Circuito MotoGP</name>
    <Placemark>
      <name>Trazado del Circuito</name>
      <LineString>
        <extrude>1</extrude>
        <tessellate>1</tessellate>
        <coordinates>
          -97.63709712058159,30.13005124316203,0
          -97.63709712058159,30.13005124316203,0
          -97.64309466364594,30.13415331519992,0
          -97.64346703511845,30.13436865600554,0
          -97.6435010586477,30.13450787097007,0
          -97.64330039883055,30.13458275231434,0
          -97.6408863283695,30.13552566896791,0
          -97.64069714144576,30.13553759425753,0
          -97.64051813675503,30.13549182683547,0
          -97.64043161835482,30.1354026240884,0
          -97.63959400790928,30.13446066634247,0
          -97.63939299045414,30.13415320383696,0
          -97.63922839810165,30.13394726861823,0
          -97.63905025501636,30.13384283230403,0
          -97.63885772079198,30.13379521581927,0
          -97.63848220878103,30.13369168736031,0
          -97.63808464037577,30.13366647435771,0
          -97.63774614913919,30.13373581018963,0
          -97.63742092504613,30.13389857735302,0
          -97.63711766139568,30.13403288655244,0
          -97.63690392328149,30.13441586350086,0
          -97.63680999995761,30.1348208666755,0
          -97.63694920200327,30.13515481356568,0
          -97.63773933908061,30.13635231536715,0
          -97.63768712568846,30.13655740149856,0
          -97.63750720967637,30.13657778773285,0
          -97.63714484896975,30.13655711936541,0
          -97.63667633399389,30.13615966240354,0
          -97.63646606513623,30.13561871683217,0
          -97.63630144983358,30.13554504939916,0
          -97.63557839663548,30.13551785205289,0
          -97.63540707775596,30.13566907634804,0
          -97.63548511184233,30.13584657317544,0
          -97.63660155390016,30.1371991537007,0
          -97.63660193195682,30.13734230029815,0
          -97.63639685399447,30.13736138986919,0
          -97.63304727841573,30.13768603181894,0
          -97.62949987089466,30.1382491727812,0
          -97.6247532484245,30.13941620438757,0
          -97.62453284153939,30.1394278680015,0
          -97.62442594596197,30.13927017262777,0
          -97.62697627393236,30.13653975074123,0
          -97.62895639672379,30.13615156828232,0
          -97.62915206609497,30.13621425885109,0
          -97.6293664149314,30.13652451414537,0
          -97.62959833157787,30.13661799260555,0
          -97.62991758312992,30.13661604027337,0
          -97.630213029624,30.13644699780762,0
          -97.63052749274283,30.13605727389017,0
          -97.63106229883643,30.13572285835862,0
          -97.63122957613992,30.13574417768768,0
          -97.63239103230913,30.13617686672325,0
          -97.63281435969118,30.13614865394819,0
          -97.63323748307667,30.1359410825191,0
          -97.63352721908937,30.13570638995378,0
          -97.63367355093159,30.13538992110954,0
          -97.63375077817113,30.13497796828046,0
          -97.63381830839405,30.13479748264773,0
          -97.63407759099609,30.13460304963819,0
          -97.63463320634919,30.13440797236521,0
          -97.63478294209079,30.13424458267082,0
          -97.63505482885733,30.13368534904919,0
          -97.63523463026493,30.13347708666868,0
          -97.63697556012175,30.13255052389576,0
          -97.63725016438846,30.13222390758381,0
          -97.63735395359537,30.13188575067287,0
          -97.6372877914533,30.13154943207203,0
          -97.63676429545644,30.13025595043652,0
          -97.63682114786494,30.13000886171115,0
          -97.63709674181871,30.13005119539405,0
        </coordinates>
      </LineString>
    </Placemark>
  </Document>
</kml>
